{
  "links" : {
    "next" : "https://api.nasa.gov/neo/rest/v1/feed?start_date=2015-06-23&end_date=2015-06-23&detailed=true&api_key=t0TVs3DtDT2H8Oy2Zy8m2eVrNsAVKAexjcZXUckd",
    "prev" : "https://api.nasa.gov/neo/rest/v1/feed?start_date=2015-06-21&end_date=2015-06-21&detailed=true&api_key=t0TVs3DtDT2H8Oy2Zy8m2eVrNsAVKAexjcZXUckd",
    "self" : "https://api.nasa.gov/neo/rest/v1/feed?start_date=2015-06-22&end_date=2015-06-22&detailed=true&api_key=t0TVs3DtDT2H8Oy2Zy8m2eVrNsAVKAexjcZXUckd"
  },
  "element_count" : 5,
  "near_earth_objects" : {
    "2015-06-22" : [ {
      "links" : {
        "self" : "https://api.nasa.gov/neo/rest/v1/neo/3778541?api_key=t0TVs3DtDT2H8Oy2Zy8m2eVrNsAVKAexjcZXUckd"
      },
      "neo_reference_id" : "3778541",
      "name" : "(2017 NB7)",
      "nasa_jpl_url" : "http://ssd.jpl.nasa.gov/sbdb.cgi?sstr=3778541",
      "absolute_magnitude_h" : 23.314,
      "estimated_diameter" : {
        "kilometers" : {
          "estimated_diameter_min" : 0.0577769985,
          "estimated_diameter_max" : 0.1291932962
        },
        "meters" : {
          "estimated_diameter_min" : 57.7769984997,
          "estimated_diameter_max" : 129.1932961812
        },
        "miles" : {
          "estimated_diameter_min" : 0.0359009513,
          "estimated_diameter_max" : 0.0802769676
        },
        "feet" : {
          "estimated_diameter_min" : 189.5570877577,
          "estimated_diameter_max" : 423.8625338431
        }
      },
      "is_potentially_hazardous_asteroid" : false,
      "close_approach_data" : [ {
        "close_approach_date" : "2015-06-22",
        "epoch_date_close_approach" : 1434956400000,
        "relative_velocity" : {
          "kilometers_per_second" : "11.9477236538",
          "kilometers_per_hour" : "43011.8051538154",
          "miles_per_hour" : "26725.8630412693"
        },
        "miss_distance" : {
          "astronomical" : "0.2097335447",
          "lunar" : "81.5863494873",
          "kilometers" : "31375692",
          "miles" : "19495952"
        },
        "orbiting_body" : "Earth"
      } ],
      "orbital_data" : {
        "orbit_id" : "4",
        "orbit_determination_date" : "2017-09-18 06:54:24",
        "orbit_uncertainty" : "7",
        "minimum_orbit_intersection" : ".00491233",
        "jupiter_tisserand_invariant" : "4.251",
        "epoch_osculation" : "2458000.5",
        "eccentricity" : ".3711828811694904",
        "semi_major_axis" : "1.615993866318189",
        "inclination" : "5.250208398187476",
        "ascending_node_longitude" : "124.1850493893831",
        "orbital_period" : "750.3398098985554",
        "perihelion_distance" : "1.016164607065979",
        "perihelion_argument" : "190.5220196667347",
        "aphelion_distance" : "2.215823125570399",
        "perihelion_time" : "2457973.068542624401",
        "mean_anomaly" : "13.16113649434463",
        "mean_motion" : ".4797826201553552",
        "equinox" : "J2000"
      }
    }, {
      "links" : {
        "self" : "https://api.nasa.gov/neo/rest/v1/neo/3724053?api_key=t0TVs3DtDT2H8Oy2Zy8m2eVrNsAVKAexjcZXUckd"
      },
      "neo_reference_id" : "3724053",
      "name" : "(2015 NY9)",
      "nasa_jpl_url" : "http://ssd.jpl.nasa.gov/sbdb.cgi?sstr=3724053",
      "absolute_magnitude_h" : 23.4,
      "estimated_diameter" : {
        "kilometers" : {
          "estimated_diameter_min" : 0.0555334912,
          "estimated_diameter_max" : 0.1241766613
        },
        "meters" : {
          "estimated_diameter_min" : 55.5334911581,
          "estimated_diameter_max" : 124.1766612574
        },
        "miles" : {
          "estimated_diameter_min" : 0.0345069009,
          "estimated_diameter_max" : 0.0771597762
        },
        "feet" : {
          "estimated_diameter_min" : 182.1964991311,
          "estimated_diameter_max" : 407.4037573197
        }
      },
      "is_potentially_hazardous_asteroid" : false,
      "close_approach_data" : [ {
        "close_approach_date" : "2015-06-22",
        "epoch_date_close_approach" : 1434956400000,
        "relative_velocity" : {
          "kilometers_per_second" : "4.8139908809",
          "kilometers_per_hour" : "17330.3671711861",
          "miles_per_hour" : "10768.4162014517"
        },
        "miss_distance" : {
          "astronomical" : "0.1864843936",
          "lunar" : "72.542427063",
          "kilometers" : "27897668",
          "miles" : "17334808"
        },
        "orbiting_body" : "Earth"
      } ],
      "orbital_data" : {
        "orbit_id" : "4",
        "orbit_determination_date" : "2017-04-06 08:32:49",
        "orbit_uncertainty" : "7",
        "minimum_orbit_intersection" : ".156863",
        "jupiter_tisserand_invariant" : "3.844",
        "epoch_osculation" : "2458000.5",
        "eccentricity" : ".3855490815139141",
        "semi_major_axis" : "1.904133915589806",
        "inclination" : "5.21615018865304",
        "ascending_node_longitude" : "285.0221240395412",
        "orbital_period" : "959.7202527513831",
        "perihelion_distance" : "1.169996833354663",
        "perihelion_argument" : "341.4933950521789",
        "aphelion_distance" : "2.638270997824948",
        "perihelion_time" : "2458157.022752034313",
        "mean_anomaly" : "301.286858779097",
        "mean_motion" : ".3751093081217476",
        "equinox" : "J2000"
      }
    }, {
      "links" : {
        "self" : "https://api.nasa.gov/neo/rest/v1/neo/3398649?api_key=t0TVs3DtDT2H8Oy2Zy8m2eVrNsAVKAexjcZXUckd"
      },
      "neo_reference_id" : "3398649",
      "name" : "(2007 YN56)",
      "nasa_jpl_url" : "http://ssd.jpl.nasa.gov/sbdb.cgi?sstr=3398649",
      "absolute_magnitude_h" : 23.0,
      "estimated_diameter" : {
        "kilometers" : {
          "estimated_diameter_min" : 0.0667659413,
          "estimated_diameter_max" : 0.1492931834
        },
        "meters" : {
          "estimated_diameter_min" : 66.7659413495,
          "estimated_diameter_max" : 149.2931834393
        },
        "miles" : {
          "estimated_diameter_min" : 0.0414864197,
          "estimated_diameter_max" : 0.0927664547
        },
        "feet" : {
          "estimated_diameter_min" : 219.0483710172,
          "estimated_diameter_max" : 489.807047955
        }
      },
      "is_potentially_hazardous_asteroid" : false,
      "close_approach_data" : [ {
        "close_approach_date" : "2015-06-22",
        "epoch_date_close_approach" : 1434956400000,
        "relative_velocity" : {
          "kilometers_per_second" : "9.3770797824",
          "kilometers_per_hour" : "33757.4872165994",
          "miles_per_hour" : "20975.5897652254"
        },
        "miss_distance" : {
          "astronomical" : "0.1371455568",
          "lunar" : "53.3496246338",
          "kilometers" : "20516684",
          "miles" : "12748477"
        },
        "orbiting_body" : "Earth"
      } ],
      "orbital_data" : {
        "orbit_id" : "8",
        "orbit_determination_date" : "2017-04-06 09:04:50",
        "orbit_uncertainty" : "6",
        "minimum_orbit_intersection" : ".0425389",
        "jupiter_tisserand_invariant" : "5.665",
        "epoch_osculation" : "2458000.5",
        "eccentricity" : ".3308624103173001",
        "semi_major_axis" : "1.078829552037313",
        "inclination" : "11.50708648710864",
        "ascending_node_longitude" : "98.95221213026457",
        "orbital_period" : "409.2867436248061",
        "perihelion_distance" : ".7218854061287144",
        "perihelion_argument" : "251.8049892175783",
        "aphelion_distance" : "1.435773697945911",
        "perihelion_time" : "2458071.473970129978",
        "mean_anomaly" : "297.5727906051746",
        "mean_motion" : ".879578939722545",
        "equinox" : "J2000"
      }
    } ]
  }
}